{
  "type": "FeatureCollection",
  "features": [
    {
      "type": "Feature",
      "properties": {
        "norad_id": 43262,
        "name": "GAOFEN-1 04",
        "group": "resource",
        "lat": 21.899386582342377,
        "lon": 51.88846659723851,
        "alt_km": 640.0702534968614,
        "timestamp": "2025-12-23T07:45:09.054254+00:00",
        "meta_object_name": "GAOFEN-1 04",
        "meta_object_id": "2018-031D",
        "meta_epoch": "2025-12-22T23:31:11.763264",
        "meta_mean_motion": 14.76423826,
        "meta_eccentricity": 6.095e-05,
        "meta_inclination": 98.0795,
        "meta_ra_of_asc_node": 54.8189,
        "meta_arg_of_pericenter": 58.6308,
        "meta_mean_anomaly": 301.4961,
        "meta_ephemeris_type": 0,
        "meta_classification_type": "U",
        "meta_norad_cat_id": 43262,
        "meta_element_set_no": 999,
        "meta_rev_at_epoch": 41668,
        "meta_bstar": 7.3416457e-05,
        "meta_mean_motion_dot": 4.59e-06,
        "meta_mean_motion_ddot": 0,
        "tle_line1": "1 43262U 18031D   25356.97999726  .00000459  00000+0  73416-4 0  9991",
        "tle_line2": "2 43262  98.0795  54.8189 0000609  58.6308 301.4961 14.76423826416689"
      },
      "geometry": {
        "type": "Point",
        "coordinates": [
          51.88846659723851,
          21.899386582342377
        ]
      }
    },
    {
      "type": "Feature",
      "properties": {
        "norad_id": 43437,
        "name": "SENTINEL-3B",
        "group": "resource",
        "lat": 78.1516357957733,
        "lon": -71.29904935638748,
        "alt_km": 794.1731955995529,
        "timestamp": "2025-12-23T07:45:09.054264+00:00",
        "meta_object_name": "SENTINEL-3B",
        "meta_object_id": "2018-039A",
        "meta_epoch": "2025-12-22T19:30:45.179424",
        "meta_mean_motion": 14.26737752,
        "meta_eccentricity": 0.00016214,
        "meta_inclination": 98.6254,
        "meta_ra_of_asc_node": 61.8534,
        "meta_arg_of_pericenter": 91.9205,
        "meta_mean_anomaly": 268.2161,
        "meta_ephemeris_type": 0,
        "meta_classification_type": "U",
        "meta_norad_cat_id": 43437,
        "meta_element_set_no": 999,
        "meta_rev_at_epoch": 39897,
        "meta_bstar": 7.2567326e-05,
        "meta_mean_motion_dot": 1.32e-06,
        "meta_mean_motion_ddot": 0,
        "tle_line1": "1 43437U 18039A   25356.81302291  .00000132  00000+0  72567-4 0  9995",
        "tle_line2": "2 43437  98.6254  61.8534 0001621  91.9205 268.2161 14.26737752398976"
      },
      "geometry": {
        "type": "Point",
        "coordinates": [
          -71.29904935638748,
          78.1516357957733
        ]
      }
    },
    {
      "type": "Feature",
      "properties": {
        "norad_id": 43461,
        "name": "GAOFEN-5 01",
        "group": "resource",
        "lat": -69.7582793543604,
        "lon": -15.79788612111031,
        "alt_km": 698.7469763503759,
        "timestamp": "2025-12-23T07:45:09.054274+00:00",
        "meta_object_name": "GAOFEN-5 01",
        "meta_object_id": "2018-043A",
        "meta_epoch": "2025-12-22T22:12:48.981888",
        "meta_mean_motion": 14.60420499,
        "meta_eccentricity": 5.174e-05,
        "meta_inclination": 98.4342,
        "meta_ra_of_asc_node": 320.0714,
        "meta_arg_of_pericenter": 264.8511,
        "meta_mean_anomaly": 95.263,
        "meta_ephemeris_type": 0,
        "meta_classification_type": "U",
        "meta_norad_cat_id": 43461,
        "meta_element_set_no": 999,
        "meta_rev_at_epoch": 40596,
        "meta_bstar": 0.00010513854,
        "meta_mean_motion_dot": 4.6e-06,
        "meta_mean_motion_ddot": 0,
        "tle_line1": "1 43461U 18043A   25356.92556692  .00000460  00000+0  10514-3 0  9992",
        "tle_line2": "2 43461  98.4342 320.0714 0000517 264.8511  95.2630 14.60420499405965"
      },
      "geometry": {
        "type": "Point",
        "coordinates": [
          -15.79788612111031,
          -69.7582793543604
        ]
      }
    },
    {
      "type": "Feature",
      "properties": {
        "norad_id": 43484,
        "name": "GAOFEN-6",
        "group": "resource",
        "lat": 1.5482012181099702,
        "lon": -118.55349653359363,
        "alt_km": 650.3249564450889,
        "timestamp": "2025-12-23T07:45:09.054285+00:00",
        "meta_object_name": "GAOFEN-6",
        "meta_object_id": "2018-048A",
        "meta_epoch": "2025-12-22T22:48:59.019840",
        "meta_mean_motion": 14.76583084,
        "meta_eccentricity": 0.0012683,
        "meta_inclination": 97.802,
        "meta_ra_of_asc_node": 60.8744,
        "meta_arg_of_pericenter": 33.4774,
        "meta_mean_anomaly": 326.7236,
        "meta_ephemeris_type": 0,
        "meta_classification_type": "U",
        "meta_norad_cat_id": 43484,
        "meta_element_set_no": 999,
        "meta_rev_at_epoch": 40738,
        "meta_bstar": 0.00013083204,
        "meta_mean_motion_dot": 8.65e-06,
        "meta_mean_motion_ddot": 0,
        "tle_line1": "1 43484U 18048A   25356.95068310  .00000865  00000+0  13083-3 0  9993",
        "tle_line2": "2 43484  97.8020  60.8744 0012683  33.4774 326.7236 14.76583084407385"
      },
      "geometry": {
        "type": "Point",
        "coordinates": [
          -118.55349653359363,
          1.5482012181099702
        ]
      }
    },
    {
      "type": "Feature",
      "properties": {
        "norad_id": 43585,
        "name": "GAOFEN-11 01",
        "group": "resource",
        "lat": -52.861596218507145,
        "lon": -129.37812463852188,
        "alt_km": 422.8484993006523,
        "timestamp": "2025-12-23T07:45:09.054295+00:00",
        "meta_object_name": "GAOFEN-11 01",
        "meta_object_id": "2018-063A",
        "meta_epoch": "2025-12-22T22:59:54.287808",
        "meta_mean_motion": 15.49486442,
        "meta_eccentricity": 0.00038998,
        "meta_inclination": 97.1549,
        "meta_ra_of_asc_node": 59.8077,
        "meta_arg_of_pericenter": 259.4441,
        "meta_mean_anomaly": 100.6371,
        "meta_ephemeris_type": 0,
        "meta_classification_type": "U",
        "meta_norad_cat_id": 43585,
        "meta_element_set_no": 999,
        "meta_rev_at_epoch": 41300,
        "meta_bstar": 0.00015700889,
        "meta_mean_motion_dot": 8.551e-05,
        "meta_mean_motion_ddot": 0,
        "tle_line1": "1 43585U 18063A   25356.95826722  .00008551  00000+0  15701-3 0  9990",
        "tle_line2": "2 43585  97.1549  59.8077 0003899 259.4441 100.6371 15.49486442413009"
      },
      "geometry": {
        "type": "Point",
        "coordinates": [
          -129.37812463852188,
          -52.861596218507145
        ]
      }
    },
    {
      "type": "Feature",
      "properties": {
        "norad_id": 43613,
        "name": "ICESAT-2",
        "group": "resource",
        "lat": -64.43243953222749,
        "lon": 59.396105347965545,
        "alt_km": 489.51009324555616,
        "timestamp": "2025-12-23T07:45:09.054305+00:00",
        "meta_object_name": "ICESAT-2",
        "meta_object_id": "2018-070A",
        "meta_epoch": "2025-12-22T22:49:44.061888",
        "meta_mean_motion": 15.28291685,
        "meta_eccentricity": 0.00031392,
        "meta_inclination": 92.0041,
        "meta_ra_of_asc_node": 243.4932,
        "meta_arg_of_pericenter": 119.4893,
        "meta_mean_anomaly": 240.667,
        "meta_ephemeris_type": 0,
        "meta_classification_type": "U",
        "meta_norad_cat_id": 43613,
        "meta_element_set_no": 999,
        "meta_rev_at_epoch": 40554,
        "meta_bstar": 0.00048671537,
        "meta_mean_motion_dot": 0.00013415,
        "meta_mean_motion_ddot": 0,
        "tle_line1": "1 43613U 18070A   25356.95120442  .00013415  00000+0  48672-3 0  9994",
        "tle_line2": "2 43613  92.0041 243.4932 0003139 119.4893 240.6670 15.28291685405543"
      },
      "geometry": {
        "type": "Point",
        "coordinates": [
          59.396105347965545,
          -64.43243953222749
        ]
      }
    },
    {
      "type": "Feature",
      "properties": {
        "norad_id": 43719,
        "name": "HYSIS",
        "group": "resource",
        "lat": -65.75722225023729,
        "lon": 78.46736685142554,
        "alt_km": 641.0830693464304,
        "timestamp": "2025-12-23T07:45:09.054315+00:00",
        "meta_object_name": "HYSIS",
        "meta_object_id": "2018-096A",
        "meta_epoch": "2025-12-22T22:18:39.199104",
        "meta_mean_motion": 14.7866931,
        "meta_eccentricity": 9.007e-05,
        "meta_inclination": 98.0086,
        "meta_ra_of_asc_node": 59.8573,
        "meta_arg_of_pericenter": 55.1211,
        "meta_mean_anomaly": 305.0084,
        "meta_ephemeris_type": 0,
        "meta_classification_type": "U",
        "meta_norad_cat_id": 43719,
        "meta_element_set_no": 999,
        "meta_rev_at_epoch": 38137,
        "meta_bstar": 0.00012992805,
        "meta_mean_motion_dot": 9e-06,
        "meta_mean_motion_ddot": 0,
        "tle_line1": "1 43719U 18096A   25356.92962036  .00000900  00000+0  12993-3 0  9991",
        "tle_line2": "2 43719  98.0086  59.8573 0000900  55.1211 305.0084 14.78669310381375"
      },
      "geometry": {
        "type": "Point",
        "coordinates": [
          78.46736685142554,
          -65.75722225023729
        ]
      }
    }
  ]
}